{"type": "FeatureCollection", "features": [ {"type": "Feature", "properties": {"norad_id": 35022, "name": "COSMOS 2251 DEB", "group": "cosmos-2251-debris", "lat": 49.44419393514906, "lon": -35.81072391322777, "alt_km": 685.2776329461722, "timestamp": "2025-12-21T18:54:58.891370+00:00", "meta": {"OBJECT_NAME": "COSMOS 2251 DEB", "OBJECT_ID": "1993-036AGK", "EPOCH": "2025-12-15T14:45:27.251136", "MEAN_MOTION": 14.60846809, "ECCENTRICITY": 0.00465822, "INCLINATION": 74.027, "RA_OF_ASC_NODE": 316.4327, "ARG_OF_PERICENTER": 155.4398, "MEAN_ANOMALY": 204.9001, "EPHEMERIS_TYPE": 0, "CLASSIFICATION_TYPE": "U", "NORAD_CAT_ID": 35022, "ELEMENT_SET_NO": 999, "REV_AT_EPOCH": 59185, "BSTAR": 0.00033959453, "MEAN_MOTION_DOT": 1.655e-05, "MEAN_MOTION_DDOT": 0}, "tle": {"line1": "1 35022U 93036AGK 25349.61489874  .00001655  00000+0  33959-3 0  9991", "line2": "2 35022  74.0270 316.4327 0046582 155.4398 204.9001 14.60846809591850"}}, "geometry": {"type": "Point", "coordinates": [-35.81072391322777, 49.44419393514906]}}, {"type": "Feature", "properties": {"norad_id": 35023, "name": "COSMOS 2251 DEB", "group": "cosmos-2251-debris", "lat": -73.6689241847312, "lon": 92.01258434445164, "alt_km": 564.9075885410457, "timestamp": "2025-12-21T18:54:58.891380+00:00", "meta": {"OBJECT_NAME": "COSMOS 2251 DEB", "OBJECT_ID": "1993-036AGL", "EPOCH": "2025-12-21T00:45:06.713280", "MEAN_MOTION": 14.95326919, "ECCENTRICITY": 0.00336566, "INCLINATION": 74.0361, "RA_OF_ASC_NODE": 195.8615, "ARG_OF_PERICENTER": 272.4538, "MEAN_ANOMALY": 241.5573, "EPHEMERIS_TYPE": 0, "CLASSIFICATION_TYPE": "U", "NORAD_CAT_ID": 35023, "ELEMENT_SET_NO": 999, "REV_AT_EPOCH": 88403, "BSTAR": 0.0008553591, "MEAN_MOTION_DOT": 9.512e-05, "MEAN_MOTION_DDOT": 0}, "tle": {"line1": "1 35023U 93036AGL 25355.03132770  .00009512  00000+0  85536-3 0  9993", "line2": "2 35023  74.0361 195.8615 0033656 272.4538 241.5573 14.95326919884034"}}, "geometry": {"type": "Point", "coordinates": [92.01258434445164, -73.6689241847312]}}, {"type": "Feature", "properties": {"norad_id": 35025, "name": "COSMOS 2251 DEB", "group": "cosmos-2251-debris", "lat": -29.518881195196244, "lon": 35.81132416647438, "alt_km": 599.2708549647432, "timestamp": "2025-12-21T18:54:58.891389+00:00", "meta": {"OBJECT_NAME": "COSMOS 2251 DEB", "OBJECT_ID": "1993-036AGN", "EPOCH": "2025-12-21T12:31:58.633824", "MEAN_MOTION": 14.72748333, "ECCENTRICITY": 0.00855678, "INCLINATION": 73.938, "RA_OF_ASC_NODE": 45.7208, "ARG_OF_PERICENTER": 316.6726, "MEAN_ANOMALY": 42.7738, "EPHEMERIS_TYPE": 0, "CLASSIFICATION_TYPE": "U", "NORAD_CAT_ID": 35025, "ELEMENT_SET_NO": 999, "REV_AT_EPOCH": 88772, "BSTAR": 0.00031209765, "MEAN_MOTION_DOT": 2.075e-05, "MEAN_MOTION_DDOT": 0}, "tle": {"line1": "1 35025U 93036AGN 25355.52220641  .00002075  00000+0  31210-3 0  9991", "line2": "2 35025  73.9380  45.7208 0085567 316.6726  42.7738 14.72748333887720"}}, "geometry": {"type": "Point", "coordinates": [35.81132416647438, -29.518881195196244]}}, {"type": "Feature", "properties": {"norad_id": 35026, "name": "COSMOS 2251 DEB", "group": "cosmos-2251-debris", "lat": -59.4385685515892, "lon": -87.25151530253856, "alt_km": 746.0802218755134, "timestamp": "2025-12-21T18:54:58.891399+00:00", "meta": {"OBJECT_NAME": "COSMOS 2251 DEB", "OBJECT_ID": "1993-036AGP", "EPOCH": "2025-12-18T03:45:00.139104", "MEAN_MOTION": 14.53626797, "ECCENTRICITY": 0.0082422, "INCLINATION": 74.047, "RA_OF_ASC_NODE": 308.5764, "ARG_OF_PERICENTER": 60.5026, "MEAN_ANOMALY": 318.4835, "EPHEMERIS_TYPE": 0, "CLASSIFICATION_TYPE": "U", "NORAD_CAT_ID": 35026, "ELEMENT_SET_NO": 999, "REV_AT_EPOCH": 88222, "BSTAR": 6.097601e-05, "MEAN_MOTION_DOT": 2.37e-06, "MEAN_MOTION_DDOT": 0}, "tle": {"line1": "1 35026U 93036AGP 25352.15625161  .00000237  00000+0  60976-4 0  9994", "line2": "2 35026  74.0470 308.5764 0082422  60.5026 318.4835 14.53626797882224"}}, "geometry": {"type": "Point", "coordinates": [-87.25151530253856, -59.4385685515892]}}, {"type": "Feature", "properties": {"norad_id": 35028, "name": "COSMOS 2251 DEB", "group": "cosmos-2251-debris", "lat": 31.804529651108698, "lon": 63.586631635196795, "alt_km": 732.4703862918986, "timestamp": "2025-12-21T18:54:58.891419+00:00", "meta": {"OBJECT_NAME": "COSMOS 2251 DEB", "OBJECT_ID": "1993-036AGR", "EPOCH": "2025-12-21T04:06:01.501344", "MEAN_MOTION": 14.56577596, "ECCENTRICITY": 0.00828284, "INCLINATION": 74.0382, "RA_OF_ASC_NODE": 254.9813, "ARG_OF_PERICENTER": 26.387, "MEAN_ANOMALY": 123.709, "EPHEMERIS_TYPE": 0, "CLASSIFICATION_TYPE": "U", "NORAD_CAT_ID": 35028, "ELEMENT_SET_NO": 999, "REV_AT_EPOCH": 88408, "BSTAR": 7.219211e-05, "MEAN_MOTION_DOT": 3.06e-06, "MEAN_MOTION_DDOT": 0}, "tle": {"line1": "1 35028U 93036AGR 25355.17085071  .00000306  00000+0  72192-4 0  9991", "line2": "2 35028  74.0382 254.9813 0082828  26.3870 123.7090 14.56577596884085"}}, "geometry": {"type": "Point", "coordinates": [63.586631635196795, 31.804529651108698]}}, {"type": "Feature", "properties": {"norad_id": 35031, "name": "COSMOS 2251 DEB", "group": "cosmos-2251-debris", "lat": -2.3272232061043727, "lon": 63.26175940693805, "alt_km": 779.0277849139529, "timestamp": "2025-12-21T18:54:58.891441+00:00", "meta": {"OBJECT_NAME": "COSMOS 2251 DEB", "OBJECT_ID": "1993-036AGU", "EPOCH": "2025-12-17T23:55:41.225088", "MEAN_MOTION": 14.38299529, "ECCENTRICITY": 0.00190755, "INCLINATION": 74.0382, "RA_OF_ASC_NODE": 249.5774, "ARG_OF_PERICENTER": 342.0186, "MEAN_ANOMALY": 18.0291, "EPHEMERIS_TYPE": 0, "CLASSIFICATION_TYPE": "U", "NORAD_CAT_ID": 35031, "ELEMENT_SET_NO": 999, "REV_AT_EPOCH": 65359, "BSTAR": 0.00013785455, "MEAN_MOTION_DOT": 3.94e-06, "MEAN_MOTION_DDOT": 0}, "tle": {"line1": "1 35031U 93036AGU 25351.99700492  .00000394  00000+0  13785-3 0  9991", "line2": "2 35031  74.0382 249.5774 0019075 342.0186  18.0291 14.38299529653593"}}, "geometry": {"type": "Point", "coordinates": [63.26175940693805, -2.3272232061043727]}}, {"type": "Feature", "properties": {"norad_id": 35032, "name": "COSMOS 2251 DEB", "group": "cosmos-2251-debris", "lat": -5.570748530554919, "lon": -11.769448081077055, "alt_km": 743.7752292361001, "timestamp": "2025-12-21T18:54:58.891461+00:00", "meta": {"OBJECT_NAME": "COSMOS 2251 DEB", "OBJECT_ID": "1993-036AGV", "EPOCH": "2025-12-20T06:50:46.349952", "MEAN_MOTION": 14.58779694, "ECCENTRICITY": 0.00678547, "INCLINATION": 73.8514, "RA_OF_ASC_NODE": 352.7435, "ARG_OF_PERICENTER": 202.7795, "MEAN_ANOMALY": 181.6184, "EPHEMERIS_TYPE": 0, "CLASSIFICATION_TYPE": "U", "NORAD_CAT_ID": 35032, "ELEMENT_SET_NO": 999, "REV_AT_EPOCH": 87784, "BSTAR": 0.00054968758, "MEAN_MOTION_DOT": 2.62e-05, "MEAN_MOTION_DDOT": 0}, "tle": {"line1": "1 35032U 93036AGV 25354.28525868  .00002620  00000+0  54969-3 0  9992", "line2": "2 35032  73.8514 352.7435 0067854 202.7795 181.6184 14.58779694877847"}}, "geometry": {"type": "Point", "coordinates": [-11.769448081077055, -5.570748530554919]}}, {"type": "Feature", "properties": {"norad_id": 35033, "name": "COSMOS 2251 DEB", "group": "cosmos-2251-debris", "lat": 53.614398878389295, "lon": -43.325575963414245, "alt_km": 725.2156630954469, "timestamp": "2025-12-21T18:54:58.891473+00:00", "meta": {"OBJECT_NAME": "COSMOS 2251 DEB", "OBJECT_ID": "1993-036AGW", "EPOCH": "2025-12-19T05:07:27.625152", "MEAN_MOTION": 14.50959586, "ECCENTRICITY": 0.001448, "INCLINATION": 74.0251, "RA_OF_ASC_NODE": 164.3945, "ARG_OF_PERICENTER": 270.8601, "MEAN_ANOMALY": 89.0901, "EPHEMERIS_TYPE": 0, "CLASSIFICATION_TYPE": "U", "NORAD_CAT_ID": 35033, "ELEMENT_SET_NO": 999, "REV_AT_EPOCH": 66021, "BSTAR": 0.00048139, "MEAN_MOTION_DOT": 1.877e-05, "MEAN_MOTION_DDOT": 0}, "tle": {"line1": "1 35033U 93036AGW 25353.21351418  .00001877  00000+0  48139-3 0  9998", "line2": "2 35033  74.0251 164.3945 0014480 270.8601  89.0901 14.50959586660212"}}, "geometry": {"type": "Point", "coordinates": [-43.325575963414245, 53.614398878389295]}}, {"type": "Feature", "properties": {"norad_id": 35038, "name": "COSMOS 2251 DEB", "group": "cosmos-2251-debris", "lat": -29.607033863689967, "lon": 17.018609984284165, "alt_km": 748.9189730418939, "timestamp": "2025-12-21T18:54:58.891483+00:00", "meta": {"OBJECT_NAME": "COSMOS 2251 DEB", "OBJECT_ID": "1993-036AHB", "EPOCH": "2025-12-16T02:43:57.942048", "MEAN_MOTION": 14.25166694, "ECCENTRICITY": 0.01140711, "INCLINATION": 74.1077, "RA_OF_ASC_NODE": 36.5236, "ARG_OF_PERICENTER": 19.3791, "MEAN_ANOMALY": 9.3469, "EPHEMERIS_TYPE": 0, "CLASSIFICATION_TYPE": "U", "NORAD_CAT_ID": 35038, "ELEMENT_SET_NO": 999, "REV_AT_EPOCH": 85617, "BSTAR": 0.00096319549, "MEAN_MOTION_DOT": 2.397e-05, "MEAN_MOTION_DDOT": 0}, "tle": {"line1": "1 35038U 93036AHB 25350.11386507  .00002397  00000+0  96320-3 0  9999", "line2": "2 35038  74.1077  36.5236 0114071  19.3791   9.3469 14.25166694856178"}}, "geometry": {"type": "Point", "coordinates": [17.018609984284165, -29.607033863689967]}}, {"type": "Feature", "properties": {"norad_id": 35043, "name": "COSMOS 2251 DEB", "group": "cosmos-2251-debris", "lat": 58.20689553769535, "lon": 55.40738065862986, "alt_km": 698.458642945966, "timestamp": "2025-12-21T18:54:58.891498+00:00", "meta": {"OBJECT_NAME": "COSMOS 2251 DEB", "OBJECT_ID": "1993-036AHG", "EPOCH": "2025-12-21T08:52:47.877312", "MEAN_MOTION": 14.7734035, "ECCENTRICITY": 0.00957897, "INCLINATION": 73.9513, "RA_OF_ASC_NODE": 28.5607, "ARG_OF_PERICENTER": 236.5232, "MEAN_ANOMALY": 122.6761, "EPHEMERIS_TYPE": 0, "CLASSIFICATION_TYPE": "U", "NORAD_CAT_ID": 35043, "ELEMENT_SET_NO": 999, "REV_AT_EPOCH": 67546, "BSTAR": 0.0026010267, "MEAN_MOTION_DOT": 0.00019965, "MEAN_MOTION_DDOT": 0}, "tle": {"line1": "1 35043U 93036AHG 25355.36999858  .00019965  00000+0  26010-2 0  9993", "line2": "2 35043  73.9513  28.5607 0095789 236.5232 122.6761 14.77340350675461"}}, "geometry": {"type": "Point", "coordinates": [55.40738065862986, 58.20689553769535]}}]}